KUIPER-00035            
1 63748U 25088AA  25256.50901867 -.00006041  00000+0 -76483-3 0  9990
2 63748  51.9022 177.5909 0004690 203.2094 156.8658 14.79880241 21271
KUIPER-00037            
1 63749U 25088AB  25256.51063305 -.00002113  00000+0 -24784-3 0  9991
2 63749  51.8961 176.5476 0006631 145.8626 214.2763 14.79947658 22071
KUIPER-00038            
1 63750U 25088AC  25256.91670139 -.00048510  00000+0 -50363-2 0  9998
2 63750  51.8944 159.3311 0006885 210.7797 293.0669 14.89610190  4476
KUIPER-00039            
1 64500U 25134A   25256.91670139 -.01571685  00000+0 -10895+0 0  9992
2 64500  51.8862 296.1513 0012926  64.5904   5.6014 15.08627473  5736
KUIPER-00040            
1 64501U 25134B   25256.82417979  .00001909  00000+0  28055-3 0  9999
2 64501  51.8993 306.3373 0018264  50.3749 309.8822 14.79738293 13725
KUIPER-00041            
1 64502U 25134C   25256.41814266  .00002075  00000+0  30128-3 0  9994
2 64502  51.8989 309.4967 0014591  42.8961 317.3137 14.79905745 13647
KUIPER-00042            
1 64503U 25134D   25256.91670139  .00007337  00000+0  99252-3 0  9998
2 64503  51.8996 303.2487 0014338  53.3757  83.8359 14.79791466  4884
KUIPER-00043            
1 64504U 25134E   25256.91670139 -.00029301  00000+0 -20413-2 0  9998
2 64504  51.8870 297.1808 0007967  51.7991 293.5913 15.04767800  5539
