<?xml version="1.0" encoding="UTF-8"?>
<ndm xmlns:xsi="http://www.w3.org/2001/XMLSchema-instance" xsi:noNamespaceSchemaLocation="https://sanaregistry.org/r/ndmxml_unqualified/ndmxml-2.0.0-master-2.0.xsd">
<omm id="CCSDS_OMM_VERS" version="2.0">
<header><CREATION_DATE/><ORIGINATOR/></header><body><segment><metadata><OBJECT_NAME>KUIPER-00035</OBJECT_NAME><OBJECT_ID>2025-088AA</OBJECT_ID><CENTER_NAME>EARTH</CENTER_NAME><REF_FRAME>TEME</REF_FRAME><TIME_SYSTEM>UTC</TIME_SYSTEM><MEAN_ELEMENT_THEORY>SGP4</MEAN_ELEMENT_THEORY></metadata><data><meanElements><EPOCH>2025-09-13T12:12:59.213088</EPOCH><MEAN_MOTION>14.79880241</MEAN_MOTION><ECCENTRICITY>.00046906</ECCENTRICITY><INCLINATION>51.9022</INCLINATION><RA_OF_ASC_NODE>177.5909</RA_OF_ASC_NODE><ARG_OF_PERICENTER>203.2094</ARG_OF_PERICENTER><MEAN_ANOMALY>156.8658</MEAN_ANOMALY></meanElements><tleParameters><EPHEMERIS_TYPE>0</EPHEMERIS_TYPE><CLASSIFICATION_TYPE>U</CLASSIFICATION_TYPE><NORAD_CAT_ID>63748</NORAD_CAT_ID><ELEMENT_SET_NO>999</ELEMENT_SET_NO><REV_AT_EPOCH>2127</REV_AT_EPOCH><BSTAR>-.76482801E-3</BSTAR><MEAN_MOTION_DOT>-.6041E-4</MEAN_MOTION_DOT><MEAN_MOTION_DDOT>0</MEAN_MOTION_DDOT></tleParameters></data></segment></body></omm>
<omm id="CCSDS_OMM_VERS" version="2.0">
<header><CREATION_DATE/><ORIGINATOR/></header><body><segment><metadata><OBJECT_NAME>KUIPER-00037</OBJECT_NAME><OBJECT_ID>2025-088AB</OBJECT_ID><CENTER_NAME>EARTH</CENTER_NAME><REF_FRAME>TEME</REF_FRAME><TIME_SYSTEM>UTC</TIME_SYSTEM><MEAN_ELEMENT_THEORY>SGP4</MEAN_ELEMENT_THEORY></metadata><data><meanElements><EPOCH>2025-09-13T12:15:18.695520</EPOCH><MEAN_MOTION>14.79947658</MEAN_MOTION><ECCENTRICITY>.00066311</ECCENTRICITY><INCLINATION>51.8961</INCLINATION><RA_OF_ASC_NODE>176.5476</RA_OF_ASC_NODE><ARG_OF_PERICENTER>145.8626</ARG_OF_PERICENTER><MEAN_ANOMALY>214.2763</MEAN_ANOMALY></meanElements><tleParameters><EPHEMERIS_TYPE>0</EPHEMERIS_TYPE><CLASSIFICATION_TYPE>U</CLASSIFICATION_TYPE><NORAD_CAT_ID>63749</NORAD_CAT_ID><ELEMENT_SET_NO>999</ELEMENT_SET_NO><REV_AT_EPOCH>2207</REV_AT_EPOCH><BSTAR>-.24784397E-3</BSTAR><MEAN_MOTION_DOT>-.2113E-4</MEAN_MOTION_DOT><MEAN_MOTION_DDOT>0</MEAN_MOTION_DDOT></tleParameters></data></segment></body></omm>
<omm id="CCSDS_OMM_VERS" version="2.0">
<header><CREATION_DATE/><ORIGINATOR/></header><body><segment><metadata><OBJECT_NAME>KUIPER-00038</OBJECT_NAME><OBJECT_ID>2025-088AC</OBJECT_ID><CENTER_NAME>EARTH</CENTER_NAME><REF_FRAME>TEME</REF_FRAME><TIME_SYSTEM>UTC</TIME_SYSTEM><MEAN_ELEMENT_THEORY>SGP4</MEAN_ELEMENT_THEORY></metadata><data><meanElements><EPOCH>2025-09-13T22:00:03.000096</EPOCH><MEAN_MOTION>14.89610190</MEAN_MOTION><ECCENTRICITY>.00068857</ECCENTRICITY><INCLINATION>51.8944</INCLINATION><RA_OF_ASC_NODE>159.3311</RA_OF_ASC_NODE><ARG_OF_PERICENTER>210.7797</ARG_OF_PERICENTER><MEAN_ANOMALY>293.0669</MEAN_ANOMALY></meanElements><tleParameters><EPHEMERIS_TYPE>0</EPHEMERIS_TYPE><CLASSIFICATION_TYPE>U</CLASSIFICATION_TYPE><NORAD_CAT_ID>63750</NORAD_CAT_ID><ELEMENT_SET_NO>999</ELEMENT_SET_NO><REV_AT_EPOCH>447</REV_AT_EPOCH><BSTAR>-.50363182E-2</BSTAR><MEAN_MOTION_DOT>-.4851E-3</MEAN_MOTION_DOT><MEAN_MOTION_DDOT>0</MEAN_MOTION_DDOT></tleParameters></data></segment></body></omm>
<omm id="CCSDS_OMM_VERS" version="2.0">
<header><CREATION_DATE/><ORIGINATOR/></header><body><segment><metadata><OBJECT_NAME>KUIPER-00039</OBJECT_NAME><OBJECT_ID>2025-134A</OBJECT_ID><CENTER_NAME>EARTH</CENTER_NAME><REF_FRAME>TEME</REF_FRAME><TIME_SYSTEM>UTC</TIME_SYSTEM><MEAN_ELEMENT_THEORY>SGP4</MEAN_ELEMENT_THEORY></metadata><data><meanElements><EPOCH>2025-09-13T22:00:03.000096</EPOCH><MEAN_MOTION>15.08627473</MEAN_MOTION><ECCENTRICITY>.00129264</ECCENTRICITY><INCLINATION>51.8862</INCLINATION><RA_OF_ASC_NODE>296.1513</RA_OF_ASC_NODE><ARG_OF_PERICENTER>64.5904</ARG_OF_PERICENTER><MEAN_ANOMALY>5.6014</MEAN_ANOMALY></meanElements><tleParameters><EPHEMERIS_TYPE>0</EPHEMERIS_TYPE><CLASSIFICATION_TYPE>U</CLASSIFICATION_TYPE><NORAD_CAT_ID>64500</NORAD_CAT_ID><ELEMENT_SET_NO>999</ELEMENT_SET_NO><REV_AT_EPOCH>573</REV_AT_EPOCH><BSTAR>-.10895241E+0</BSTAR><MEAN_MOTION_DOT>-.1571685E-1</MEAN_MOTION_DOT><MEAN_MOTION_DDOT>0</MEAN_MOTION_DDOT></tleParameters></data></segment></body></omm>
<omm id="CCSDS_OMM_VERS" version="2.0">
<header><CREATION_DATE/><ORIGINATOR/></header><body><segment><metadata><OBJECT_NAME>KUIPER-00040</OBJECT_NAME><OBJECT_ID>2025-134B</OBJECT_ID><CENTER_NAME>EARTH</CENTER_NAME><REF_FRAME>TEME</REF_FRAME><TIME_SYSTEM>UTC</TIME_SYSTEM><MEAN_ELEMENT_THEORY>SGP4</MEAN_ELEMENT_THEORY></metadata><data><meanElements><EPOCH>2025-09-13T19:46:49.133856</EPOCH><MEAN_MOTION>14.79738293</MEAN_MOTION><ECCENTRICITY>.00182643</ECCENTRICITY><INCLINATION>51.8993</INCLINATION><RA_OF_ASC_NODE>306.3373</RA_OF_ASC_NODE><ARG_OF_PERICENTER>50.3749</ARG_OF_PERICENTER><MEAN_ANOMALY>309.8822</MEAN_ANOMALY></meanElements><tleParameters><EPHEMERIS_TYPE>0</EPHEMERIS_TYPE><CLASSIFICATION_TYPE>U</CLASSIFICATION_TYPE><NORAD_CAT_ID>64501</NORAD_CAT_ID><ELEMENT_SET_NO>999</ELEMENT_SET_NO><REV_AT_EPOCH>1372</REV_AT_EPOCH><BSTAR>.2805533E-3</BSTAR><MEAN_MOTION_DOT>.1909E-4</MEAN_MOTION_DOT><MEAN_MOTION_DDOT>0</MEAN_MOTION_DDOT></tleParameters></data></segment></body></omm>
<omm id="CCSDS_OMM_VERS" version="2.0">
<header><CREATION_DATE/><ORIGINATOR/></header><body><segment><metadata><OBJECT_NAME>KUIPER-00041</OBJECT_NAME><OBJECT_ID>2025-134C</OBJECT_ID><CENTER_NAME>EARTH</CENTER_NAME><REF_FRAME>TEME</REF_FRAME><TIME_SYSTEM>UTC</TIME_SYSTEM><MEAN_ELEMENT_THEORY>SGP4</MEAN_ELEMENT_THEORY></metadata><data><meanElements><EPOCH>2025-09-13T10:02:07.525824</EPOCH><MEAN_MOTION>14.79905745</MEAN_MOTION><ECCENTRICITY>.00145917</ECCENTRICITY><INCLINATION>51.8989</INCLINATION><RA_OF_ASC_NODE>309.4967</RA_OF_ASC_NODE><ARG_OF_PERICENTER>42.8961</ARG_OF_PERICENTER><MEAN_ANOMALY>317.3137</MEAN_ANOMALY></meanElements><tleParameters><EPHEMERIS_TYPE>0</EPHEMERIS_TYPE><CLASSIFICATION_TYPE>U</CLASSIFICATION_TYPE><NORAD_CAT_ID>64502</NORAD_CAT_ID><ELEMENT_SET_NO>999</ELEMENT_SET_NO><REV_AT_EPOCH>1364</REV_AT_EPOCH><BSTAR>.30128165E-3</BSTAR><MEAN_MOTION_DOT>.2075E-4</MEAN_MOTION_DOT><MEAN_MOTION_DDOT>0</MEAN_MOTION_DDOT></tleParameters></data></segment></body></omm>
<omm id="CCSDS_OMM_VERS" version="2.0">
<header><CREATION_DATE/><ORIGINATOR/></header><body><segment><metadata><OBJECT_NAME>KUIPER-00042</OBJECT_NAME><OBJECT_ID>2025-134D</OBJECT_ID><CENTER_NAME>EARTH</CENTER_NAME><REF_FRAME>TEME</REF_FRAME><TIME_SYSTEM>UTC</TIME_SYSTEM><MEAN_ELEMENT_THEORY>SGP4</MEAN_ELEMENT_THEORY></metadata><data><meanElements><EPOCH>2025-09-13T22:00:03.000096</EPOCH><MEAN_MOTION>14.79791466</MEAN_MOTION><ECCENTRICITY>.00143384</ECCENTRICITY><INCLINATION>51.8996</INCLINATION><RA_OF_ASC_NODE>303.2487</RA_OF_ASC_NODE><ARG_OF_PERICENTER>53.3757</ARG_OF_PERICENTER><MEAN_ANOMALY>83.8359</MEAN_ANOMALY></meanElements><tleParameters><EPHEMERIS_TYPE>0</EPHEMERIS_TYPE><CLASSIFICATION_TYPE>U</CLASSIFICATION_TYPE><NORAD_CAT_ID>64503</NORAD_CAT_ID><ELEMENT_SET_NO>999</ELEMENT_SET_NO><REV_AT_EPOCH>488</REV_AT_EPOCH><BSTAR>.9925218E-3</BSTAR><MEAN_MOTION_DOT>.7337E-4</MEAN_MOTION_DOT><MEAN_MOTION_DDOT>0</MEAN_MOTION_DDOT></tleParameters></data></segment></body></omm>
<omm id="CCSDS_OMM_VERS" version="2.0">
<header><CREATION_DATE/><ORIGINATOR/></header><body><segment><metadata><OBJECT_NAME>KUIPER-00043</OBJECT_NAME><OBJECT_ID>2025-134E</OBJECT_ID><CENTER_NAME>EARTH</CENTER_NAME><REF_FRAME>TEME</REF_FRAME><TIME_SYSTEM>UTC</TIME_SYSTEM><MEAN_ELEMENT_THEORY>SGP4</MEAN_ELEMENT_THEORY></metadata><data><meanElements><EPOCH>2025-09-13T22:00:03.000096</EPOCH><MEAN_MOTION>15.04767800</MEAN_MOTION><ECCENTRICITY>.00079671</ECCENTRICITY><INCLINATION>51.8870</INCLINATION><RA_OF_ASC_NODE>297.1808</RA_OF_ASC_NODE><ARG_OF_PERICENTER>51.7991</ARG_OF_PERICENTER><MEAN_ANOMALY>293.5913</MEAN_ANOMALY></meanElements><tleParameters><EPHEMERIS_TYPE>0</EPHEMERIS_TYPE><CLASSIFICATION_TYPE>U</CLASSIFICATION_TYPE><NORAD_CAT_ID>64504</NORAD_CAT_ID><ELEMENT_SET_NO>999</ELEMENT_SET_NO><REV_AT_EPOCH>553</REV_AT_EPOCH><BSTAR>-.20412831E-2</BSTAR><MEAN_MOTION_DOT>-.29301E-3</MEAN_MOTION_DOT><MEAN_MOTION_DDOT>0</MEAN_MOTION_DDOT></tleParameters></data></segment></body></omm>

</ndm>
